[{"OBJECT_NAME":"LEMUR-2-ANDIS","OBJECT_ID":"2017-042P","EPOCH":"2026-03-09T13:25:33.116448","MEAN_MOTION":15.30557934,"ECCENTRICITY":0.0009101,"INCLINATION":97.3659,"RA_OF_ASC_NODE":249.795,"ARG_OF_PERICENTER":4.3248,"MEAN_ANOMALY":355.807,"EPHEMERIS_TYPE":0,"CLASSIFICATION_TYPE":"U","NORAD_CAT_ID":42838,"ELEMENT_SET_NO":999,"REV_AT_EPOCH":47319,"BSTAR":0.00079875,"MEAN_MOTION_DOT":0.00023598,"MEAN_MOTION_DDOT":0},{"OBJECT_NAME":"STARLINK-30530","OBJECT_ID":"2023-153Q","EPOCH":"2026-03-09T22:00:01.999584","MEAN_MOTION":15.26717404,"ECCENTRICITY":0.00015105,"INCLINATION":43.0017,"RA_OF_ASC_NODE":65.4834,"ARG_OF_PERICENTER":261.3491,"MEAN_ANOMALY":123.9702,"EPHEMERIS_TYPE":0,"CLASSIFICATION_TYPE":"U","NORAD_CAT_ID":58005,"ELEMENT_SET_NO":999,"REV_AT_EPOCH":567,"BSTAR":0.0018254244,"MEAN_MOTION_DOT":0.00048997,"MEAN_MOTION_DDOT":0}]
